#aP2004  7 25  0  0  0.00000000      96 ORBIT IGb00 HLM  IGS
## 1281      0.00000000   900.00000000 53211 0.0000000000000
+   29     1  3  4  5  6  7  8  9 10 11 13 14 15 16 17 18 19
+         20 21 22 23 24 25 26 27 28 29 30 31  0  0  0  0  0
+          0  0  0  0  0  0  0  0  0  0  0  0  0  0  0  0  0
+          0  0  0  0  0  0  0  0  0  0  0  0  0  0  0  0  0
+          0  0  0  0  0  0  0  0  0  0  0  0  0  0  0  0  0
++         3  4  3  3  3  3  3  3  3  4  4  4  3  4  3  3  4
++         4  3  4  4  3  4  3  3  4  3  3  3  0  0  0  0  0
++         0  0  0  0  0  0  0  0  0  0  0  0  0  0  0  0  0
++         0  0  0  0  0  0  0  0  0  0  0  0  0  0  0  0  0
++         0  0  0  0  0  0  0  0  0  0  0  0  0  0  0  0  0
%c cc cc ccc ccc cccc cccc cccc cccc ccccc ccccc ccccc ccccc
%c cc cc ccc ccc cccc cccc cccc cccc ccccc ccccc ccccc ccccc
%f  0.0000000  0.000000000  0.00000000000  0.000000000000000
%f  0.0000000  0.000000000  0.00000000000  0.000000000000000
%i    0    0    0    0      0      0      0      0         0
%i    0    0    0    0      0      0      0      0         0
/* FINAL ORBIT COMBINATION FROM WEIGHTED AVERAGE OF:        
/* cod emr esa gfz jpl mit ngs sio                          
/* REFERENCED TO IGS TIME AND TO WEIGHTED MEAN POLE:        
/* CLK ANT Z-OFFSET (M): II/IIA 1.023; IIR 0.000            
*  2004  7 25  0  0  0.00000000
P  1   3599.542036 -25408.517095   6932.849102    355.220265
P  3  11502.247666 -22192.309572   8523.005161     29.939973
P  4 -26268.218944   4927.962880   -733.086928   -224.866031
P  5  10012.011024  21514.496078 -12239.562446     40.910443
P  6   9528.759619  16641.254252  18526.466123    296.860958
P  7 -16343.977701   5587.144868 -19717.101934    443.278106
P  8 -25399.487318   -757.133266   8095.705551     -5.039222
P  9     38.542567  15936.277900 -21661.792740    -55.665592
P 10  -7032.060662  13730.213596  21521.844274     47.775448
P 11  -1824.740138 -16534.430999 -20698.154757    135.212664
P 13  -9591.553272 -14254.748566  20216.279048    -25.269835
P 14  15870.393925  -3784.985095 -20914.855245    -23.852596
P 15  26406.399442  -4030.807588     15.619705    297.372394
P 16  11737.601859  -9756.337886  21817.094478      8.432100
P 17 -10062.811049  14706.884300  19639.561287   -102.375346
P 18  19474.321115  17559.972496  -4942.310382    -57.695499
P 19   6022.171031 -25506.654859  -4420.032971    -17.653154
P 20 -11407.462183 -21932.255899  -9781.103981   -139.499534
P 21  21130.428560   6870.235729  14836.377911     77.701781
P 22  20344.203397   8239.700447 -14784.384420     15.990115
P 23   -389.731756 -24258.335291  10603.771165    127.129698
P 24 -20870.288658  11903.779489  11707.988287     44.373770
P 25  24451.290615 -10070.840867   2878.240784     71.898081
P 26  -7800.823590  25035.479104   -252.080266    168.819350
P 27 -20070.062577  -6690.509101  16843.047997    330.962280
P 28 -20852.583239  -7608.803393 -14609.473316     38.266950
P 29 -10335.094287  23926.832616   5106.850105    381.166067
P 30  18071.493324  19514.916427  -1333.154381    555.917552
P 31 -14904.625408  -5829.736111 -21565.186328    267.684170
*  2004  7 25  0 15  0.00000000
P  1   3961.563253 -25940.214061   4130.322412    355.221994
P  3  11612.642757 -21008.481104  11007.974026     29.943686
P  4 -26085.864261   4642.532947  -3552.986770   -224.878765
P  5   8715.816953  20711.691797 -14427.625922     40.912625
P  6   8870.623466  18545.319518  16949.824247    296.898966
P  7 -15943.871646   3217.710812 -20553.868261    443.261705
P  8 -24383.057733  -1194.140202  10665.030676     -5.039445
P  9  -2237.159263  16552.911708 -21029.200942    -55.666737
P 10  -8799.938578  11965.402275  21944.127119     47.775548
P 11    408.529857 -17297.946062 -20129.370948    135.215562
P 13  -8905.147369 -16389.402931  18878.126130    -25.269206
P 14  15284.833700  -1417.205340 -21632.116575    -23.853422
P 15  26263.330776  -3781.033297   2859.592446    297.376949
P 16  13460.813713  -7996.187898  21537.311813      8.431493
P 17 -12210.043507  14864.077204  18168.967877   -102.388396
P 18  19580.163862  18012.211347  -2132.825563    -57.700072
P 19   6371.465410 -25765.994905  -1597.041702    -17.649663
P 20 -10369.586808 -21204.143234 -12250.204389   -139.496085
P 21  19407.166174   7413.594365  16759.523072     77.702076
P 22  21251.031975   9560.643830 -12568.844606     15.990344
P 23    121.438748 -25240.769914   8020.775489    127.140867
P 24 -22037.133503  11957.354083   9184.852390     44.376200
P 25  24672.671148  -9835.685337     59.330124     71.899355
P 26  -7985.787026  24803.827417   2678.826245    168.831672
P 27 -18285.061289  -7411.954421  18497.976804    330.979197
P 28 -21810.924132  -8860.733084 -12393.554570     38.267929
P 29 -10354.067910  23187.421724   7876.159480    381.159315
P 30  17661.187725  19532.655576  -4123.847421    555.917741
P 31 -14349.516977  -8141.968901 -21152.748850    267.696818
*  2004  7 25  0 30  0.00000000
P  1   4221.829140 -26177.581750   1256.751676    355.222781
P  3  11742.261086 -19562.521200  13300.204729     29.947054
P  4 -25619.008885   4255.944242  -6312.902770   -224.891576
P  5   7198.747644  19831.732490 -16371.371880     40.913814
P  6   8339.123103  20290.818789  15084.253663    296.936883
P  7 -15643.940614    758.434111 -21022.687413    443.244669
P  8 -23121.423876  -1765.593992  13052.425328     -5.038567
P  9  -4398.389575  17256.480255 -20046.550273    -55.667928
P 10 -10679.511080  10284.197754  21986.184456     47.775737
P 11   2532.045733 -18123.658999 -19213.581681    135.218070
P 13  -8375.129054 -18391.462474  17214.325756    -25.268537
P 14  14817.661584   1038.177197 -21975.689782    -23.854018
P 15  25825.595856  -3445.138573   5655.023117    297.379357
P 16  15234.754134  -6363.555696  20889.709620      8.430881
P 17 -14171.395451  15096.253463  16382.200725   -102.400983
P 18  19482.120429  18235.538515    712.841386    -57.702901
P 19   6623.859252 -25733.199696   1253.354250    -17.646189
P 20  -9094.658756 -20355.254655 -14509.270983   -139.492655
P 21  17518.811899   8100.350537  18398.493934     77.701596
P 22  22037.710496  10645.115952 -10134.924616     15.990615
P 23    519.652599 -25952.894333   5298.545292    127.152216
P 24 -22919.068657  11994.236698   6506.151338     44.378299
P 25  24613.604381  -9484.052927  -2760.566715     71.899211
P 26  -8113.017224  24253.885577   5561.651335    168.843812
P 27 -16385.202667  -8286.503696  19851.372046    330.996677
P 28 -22638.535876  -9881.519295  -9965.391070     38.268511
P 29 -10356.449801  22150.814821  10510.353525    381.152612
P 30  17016.225687  19370.733802  -6844.328338    555.918293
P 31 -13917.752147 -10417.912600 -20387.030213    267.709281
*  2004  7 25  0 45  0.00000000
P  1   4416.499342 -26105.612802  -1638.470227    355.223059
P  3  11922.327181 -17878.207840  15359.615167     29.949854
P  4 -24888.573505   3736.996000  -8966.165941   -224.904446
P  5   5472.467137  18914.063502 -18037.920170     40.914935
P  6   7917.318877  21839.104837  12960.941074    296.975193
P  7 -15457.106207  -1743.169066 -21115.368254    443.227826
P  8 -21648.526879  -2494.091362  15216.416341     -5.039173
P  9  -6408.458679  18019.479408 -18728.643165    -55.669426
P 10 -12633.411922   8721.158901  21648.139328     47.775953
P 11   4511.886698 -18983.849466 -17966.189265    135.220801
P 13  -7988.085818 -20215.561253  15253.832287    -25.268066
P 14  14483.277786   3532.750389 -21939.634430    -23.854521
P 15  25110.959049  -2989.645542   8354.194277    297.383207
P 16  17018.312730  -4883.295140  19885.329853      8.430595
P 17 -15911.727181  15371.897206  14308.490408   -102.413426
P 18  19153.201586  18255.840228   3546.426059    -57.706838
P 19   6815.266720 -25398.884250   4082.286278    -17.643047
P 20  -7586.097289 -19427.722997 -16519.766534   -139.489246
P 21  15507.895317   8940.289485  19724.561471     77.702021
P 22  22663.716949  11497.647439  -7525.168436     15.990957
P 23    836.665480 -26373.059727   2484.418633    127.163555
P 24 -23508.455501  11975.361679   3716.913922     44.379230
P 25  24290.386419  -8983.972959  -5532.707402     71.899113
P 26  -8222.154140  23387.071039   8344.430862    168.856061
P 27 -14413.440684  -9315.854702  20881.022090    331.014158
P 28 -23296.198100 -10678.387436  -7367.139994     38.269293
P 29 -10380.857551  20831.920843  12964.802758    381.145905
P 30  16124.205944  19063.694853  -9448.552943    555.918498
P 31 -13606.108060 -12612.649305 -19279.559586    267.722000
EOF
